FLOCK 2K-21             
1 42860U 17042AM  20137.94067261  .00003458  00000-0  85127-4 0  9999
2 42860  96.8981   7.5738 0011019  88.2443 272.0067 15.41162582159255
FLOCK 2K-07             
1 42862U 17042AP  20138.06810224  .00002347  00000-0  58386-4 0  9993
2 42862  96.8982   7.7411 0011305  87.7704 272.4838 15.41158632159284
FLOCK 2K-40             
1 42865U 17042AS  20138.06365389  .00001885  00000-0  47346-4 0  9993
2 42865  96.8976   7.7450 0011300  88.5683 271.6859 15.41098362159279
FLOCK 2K-39             
1 42866U 17042AT  20138.06025145  .00002037  00000-0  50937-4 0  9997
2 42866  96.8976   7.7169 0011245  88.0871 272.1665 15.41141683159275
FLOCK 2K-37             
1 42867U 17042AU  20138.05769118  .00001854  00000-0  46511-4 0  9991
2 42867  96.8971   7.7140 0011356  88.3578 271.8971 15.41143918159279
FLOCK 2K-31             
1 42869U 17042AW  20137.92248294  .00003518  00000-0  86581-4 0  9995
2 42869  96.8975   7.5627 0011347  85.2200 275.0343 15.41159602159255
FLOCK 2K-32             
1 42870U 17042AX  20138.17948458  .00002514  00000-0  62392-4 0  9993
2 42870  96.8971   7.8028 0011209  85.0750 275.1777 15.41164064159290
FLOCK 2K-29             
1 42871U 17042AY  20138.11222190  .00003492  00000-0  85973-4 0  9992
2 42871  96.8976   7.7783 0011464  84.7434 275.5122 15.41153931159289
FLOCK 2K-30             
1 42872U 17042AZ  20137.91490401  .00003453  00000-0  85030-4 0  9993
2 42872  96.8984   7.6257 0011460  86.3026 273.9532 15.41156548159245
FLOCK 2K-44             
1 42873U 17042BA  20138.10693428  .00003594  00000-0  88360-4 0  9995
2 42873  96.8972   7.7468 0012105  76.5155 283.7441 15.41166545159289
FLOCK 2K-43             
1 42874U 17042BB  20138.06838278  .00001170  00000-0  34413-4 0  9993
2 42874  96.8971   3.9483 0013961  92.0086 268.2758 15.36855434159017
FLOCK 2K-41             
1 42875U 17042BC  20137.96173514  .00002095  00000-0  52283-4 0  9999
2 42875  96.8977   7.7120 0012537  78.4947 281.7708 15.41161840159265
FLOCK 2K-35             
1 42877U 17042BE  20137.90967398  .00002258  00000-0  56213-4 0  9994
2 42877  96.8981   7.6415 0012452  78.6051 281.6596 15.41155159159251
FLOCK 2K-25             
1 42884U 17042BM  20137.90713460  .00003460  00000-0  85174-4 0  9995
2 42884  96.8977   7.6041 0012494  78.8327 281.4325 15.41152889159258
FLOCK 2K-19             
1 42886U 17042BP  20138.09944529  .00003437  00000-0  84564-4 0  9996
2 42886  96.8979   7.8376 0012945  78.0734 282.1965 15.41162653159281
FLOCK 2K-18             
1 42887U 17042BQ  20137.89417692  .00002292  00000-0  57001-4 0  9994
2 42887  96.8980   7.6609 0013011  77.9502 282.3203 15.41164037159259
FLOCK 2K-16             
1 42889U 17042BS  20138.03205228  .00003142  00000-0  77476-4 0  9996
2 42889  96.8987   7.8054 0012601  76.6566 283.6087 15.41161593159274
FLOCK 2K-15             
1 42890U 17042BT  20138.08673419  .00004002  00000-0  98142-4 0  9993
2 42890  96.8989   7.9506 0012921  76.3362 283.9324 15.41167865159283
FLOCK 2K-12             
1 42893U 17042BW  20138.08142986  .00003444  00000-0  84768-4 0  9994
2 42893  96.8982   7.8869 0012896  77.4011 282.8678 15.41154202159285
FLOCK 2K-11             
1 42894U 17042BX  20137.96431757  .00001969  00000-0  49260-4 0  9996
2 42894  96.8980   7.7125 0012734  74.6637 285.6017 15.41153125159261
FLOCK 2K-10             
1 42895U 17042BY  20137.95394117  .00003528  00000-0  86763-4 0  9996
2 42895  96.8977   7.6821 0012923  75.8710 284.3973 15.41162276159269
FLOCK 2K-09             
1 42896U 17042BZ  20137.92543673  .00003158  00000-0  75105-4 0  9994
2 42896  96.8959   8.5187 0012432  73.1772 287.0839 15.42263538159499
FLOCK 2K-06             
1 42897U 17042CA  20138.18480451  .00003340  00000-0  82260-4 0  9991
2 42897  96.8976   7.8334 0011484  86.7471 273.5091 15.41167020159293
SKYSAT-C11              
1 42987U 17068A   20138.10610712  .00001007  00000-0  28923-4 0  9990
2 42987  97.2267 252.8028 0010731 155.9499 204.2250 15.38122920141268
SKYSAT-C10              
1 42988U 17068B   20138.15904506  .00000948  00000-0  27409-4 0  9994
2 42988  97.2309 252.6160 0003448 175.4166 184.7112 15.38091882141290
SKYSAT-C9               
1 42989U 17068C   20137.88681043  .00000935  00000-0  27067-4 0  9998
2 42989  97.2271 251.9802 0003187  75.1678 284.9920 15.38082875141447
SKYSAT-C8               
1 42990U 17068D   20138.07406704  .00000982  00000-0  28243-4 0  9990
2 42990  97.2307 252.9147 0003533 143.4817 216.6670 15.38160970141303
SKYSAT-C7               
1 42991U 17068E   20137.86715311  .00000961  00000-0  27751-4 0  9994
2 42991  97.2313 252.7068 0002029 109.7377 250.4087 15.38095357141276
SKYSAT-C6               
1 42992U 17068F   20138.05210744  .00000966  00000-0  27890-4 0  9996
2 42992  97.2326 253.0919 0003667  88.9471 271.2194 15.38096456141318
FLOCK 3M-4              
1 42997U 17068L   20138.20264817  .00000550  00000-0  27713-4 0  9991
2 42997  97.4153 247.8243 0014584 215.5598 144.4667 15.21214849140980
FLOCK 3M-2              
1 42998U 17068M   20138.23209562  .00001671  00000-0  77854-4 0  9997
2 42998  97.4028 246.6003 0013325 210.2067 149.8402 15.21221817140998
FLOCK 3P'-3             
1 43119U 18004J   20138.16318559  .00000667  00000-0  31041-4 0  9995
2 43119  97.4519 209.0919 0010979 154.3748 205.8035 15.23336621130237
FLOCK 3P'-2             
1 43120U 18004K   20137.94409144  .00000556  00000-0  26518-4 0  9993
2 43120  97.4523 208.7905 0010922 155.2580 204.9183 15.23157809130195
FLOCK 3P'-4             
1 43122U 18004M   20138.00858912  .00000524  00000-0  25169-4 0  9990
2 43122  97.4530 208.9055 0010760 156.6752 203.4975 15.23161980130209
FLOCK 3R-10             
1 43723U 18096E   20138.18721604  .00002398  00000-0  88375-4 0  9993
2 43723  97.4210 212.6550 0016046 230.3837 156.8113 15.28711203 81653
FLOCK 3R-12             
1 43724U 18096F   20138.16925266  .00001114  00000-0  42523-4 0  9992
2 43724  97.4230 212.6696 0015737 230.7295 129.2550 15.28707522 81653
FLOCK 3R-11             
1 43725U 18096G   20137.89439744  .00001090  00000-0  41656-4 0  9992
2 43725  97.4228 212.4152 0015750 232.0274 127.9544 15.28708095 81613
FLOCK 3R-8              
1 43727U 18096J   20137.80961933  .00001933  00000-0  71745-4 0  9993
2 43727  97.4238 212.4461 0016195 233.7310 126.2434 15.28710492 81605
FLOCK 3R-4              
1 43733U 18096Q   20138.16779036  .00002208  00000-0  81450-4 0  9991
2 43733  97.4241 212.8962 0019014 235.6837 148.6560 15.28714262 81667
FLOCK 3R-3              
1 43734U 18096R   20138.02224715  .00002372  00000-0  87306-4 0  9994
2 43734  97.4222 212.8227 0019390 235.4730 247.4237 15.28711891 81640
FLOCK 3R-15             
1 43736U 18096T   20137.95804623  .00001078  00000-0  41744-4 0  9997
2 43736  97.4242 212.7071 0020073 237.4471 122.4830 15.28236202 81632
FLOCK 3R-10             
1 43740U 18096X   20138.11031336  .00001607  00000-0  60145-4 0  9998
2 43740  97.4228 212.5949 0015606 230.2018 129.7848 15.28708375 81675
FLOCK 3R-6              
1 43741U 18096Y   20138.09240575  .00002069  00000-0  76615-4 0  9995
2 43741  97.4193 212.6637 0016428 232.3677 171.8115 15.28710642 81652
FLOCK 3R-7              
1 43742U 18096Z   20137.97878116  .00001390  00000-0  52377-4 0  9995
2 43742  97.4201 212.5701 0016296 231.1637 303.8399 15.28702870 81622
FLOCK 3R-1              
1 43747U 18096AE  20138.12429414  .00002915  00000-0  10664-3 0  9997
2 43747  97.4238 212.9328 0019296 235.4923 124.4495 15.28713135 81679
FLOCK 3S-1              
1 43769U 18099M   20137.92363146  .00000117  00000-0  15960-4 0  9997
2 43769  97.7032 209.5397 0012808 303.3622  56.6372 14.94941839 79201
FLOCK 3S-3              
1 43788U 18099AG  20138.16538548  .00000251  00000-0  27883-4 0  9991
2 43788  97.7083 210.4420 0013478 299.7536  60.2344 14.95390985 79258
SKYSAT-C12              
1 43797U 18099AR  20138.06754837  .00000896  00000-0  26374-4 0  9990
2 43797  97.2159 209.6976 0002959  77.9065 282.2512 15.37637262 80375
SKYSAT-C13              
1 43802U 18099AW  20138.00861305  .00000669  00000-0  23474-4 0  9996
2 43802  97.2495 210.0459 0005998 129.8341 230.3430 15.32810656 80207
FLOCK 3S-2              
1 43821U 18099BR  20138.15766990  .00000472  00000-0  47644-4 0  9994
2 43821  97.7073 210.5516 0012612 298.4562  61.5387 14.95589450 78961
FLOCK 3K-3              
1 43892U 18111S   20137.94063983  .00002282  00000-0  92271-4 0  9992
2 43892  97.2688  38.8278 0021336 259.3282 100.5554 15.25543082 77223
FLOCK 3K-4              
1 43893U 18111T   20138.19736274  .00002261  00000-0  91408-4 0  9999
2 43893  97.2688  39.0898 0021216 258.0313 101.8547 15.25559245 77261
FLOCK 3K-1              
1 43894U 18111U   20137.99461254  .00002290  00000-0  92469-4 0  9990
2 43894  97.2682  38.8707 0021215 259.0612 100.8240 15.25580136 77233
FLOCK 3K-2              
1 43895U 18111V   20138.18564187  .00002155  00000-0  87155-4 0  9998
2 43895  97.2687  39.0892 0021425 258.1543 101.7292 15.25595788 77262
FLOCK 3K-6              
1 43896U 18111W   20137.98288305  .00001510  00000-0  61912-4 0  9998
2 43896  97.2685  38.9029 0019730 255.4856 104.4194 15.25610491 77231
FLOCK 3K-5              
1 43899U 18111Z   20138.17378070  .00000812  00000-0  34603-4 0  9993
2 43899  97.2688  39.1209 0019904 254.3172 105.5871 15.25610732 77267
FLOCK 3K-8              
1 43901U 18111AB  20138.16769540  .00000580  00000-0  25528-4 0  9990
2 43901  97.2683  39.0883 0019922 254.4849 105.4190 15.25606367 77267
FLOCK 3K-7              
1 43902U 18111AC  20137.96500718  .00000581  00000-0  25544-4 0  9997
2 43902  97.2683  38.9175 0020182 254.5113 105.3897 15.25610130 77238
FLOCK 3K-11             
1 43904U 18111AE  20137.75566271  .00001890  00000-0  77055-4 0  9990
2 43904  97.2687  38.7587 0019739 254.8943 105.0112 15.25508741 77207
